[{"OBJECT_NAME":"LEMUR-2-FURIAUS","OBJECT_ID":"2017-042R","EPOCH":"2026-03-09T23:04:27.745536","MEAN_MOTION":15.26272951,"ECCENTRICITY":0.00075374,"INCLINATION":97.3753,"RA_OF_ASC_NODE":248.499,"ARG_OF_PERICENTER":55.8686,"MEAN_ANOMALY":304.3266,"EPHEMERIS_TYPE":0,"CLASSIFICATION_TYPE":"U","NORAD_CAT_ID":42840,"ELEMENT_SET_NO":999,"REV_AT_EPOCH":47305,"BSTAR":0.00099966194,"MEAN_MOTION_DOT":0.00025928,"MEAN_MOTION_DDOT":0},{"OBJECT_NAME":"STARLINK-34133","OBJECT_ID":"2025-111W","EPOCH":"2026-03-09T09:48:37.303776","MEAN_MOTION":15.27577729,"ECCENTRICITY":0.0001443,"INCLINATION":43.0028,"RA_OF_ASC_NODE":79.1729,"ARG_OF_PERICENTER":249.8975,"MEAN_ANOMALY":110.1722,"EPHEMERIS_TYPE":0,"CLASSIFICATION_TYPE":"U","NORAD_CAT_ID":64143,"ELEMENT_SET_NO":999,"REV_AT_EPOCH":4542,"BSTAR":-0.00015610311,"MEAN_MOTION_DOT":-4.555e-5,"MEAN_MOTION_DDOT":0}]
